NORAD_CAT_ID,OBJECT_NAME,OBJECT_TYPE,EPOCH,MEAN_MOTION,ECCENTRICITY,INCLINATION,RA_OF_ASC_NODE,ARG_OF_PERICENTER,MEAN_ANOMALY,BSTAR,MEAN_MOTION_DOT,MEAN_MOTION_DDOT,TLE_LINE0,TLE_LINE1,TLE_LINE2,SEMIMAJOR_AXIS,PERIOD,APOGEE,PERIGEE,DECAYED
53162.0,STARLINK-4114,PAYLOAD,2023-03-10 02:26:17,15.08875102,0.0002194,53.2175,42.4085,138.0956,222.0205,0.0021504,0.00034135,0.0,0 STARLINK-4114,1 53162U 22083AG  23069.10159673  .00034135  00000-0  21504-2 0  9994,2 53162  53.2175  42.4085 0002194 138.0956 222.0205 15.08875102 36596,6917.773,95.435,541.156,538.12,0.0
53162.0,STARLINK-4114,PAYLOAD,2023-03-10 05:37:04,15.08870157,0.0001892,53.2181,41.8118,54.7396,305.3773,0.0015984,0.00025263,0.0,0 STARLINK-4114,1 53162U 22083AG  23069.23407977  .00025263  00000-0  15984-2 0  9998,2 53162  53.2181  41.8118 0001892  54.7396 305.3773 15.08870157 36612,6917.788,95.436,540.962,538.344,0.0
53162.0,STARLINK-4114,PAYLOAD,2023-03-10 15:09:23,15.08846377,0.000125,53.2175,40.0312,95.2866,264.8269,0.0010519,0.00016496,0.0,0 STARLINK-4114,1 53162U 22083AG  23069.63151849  .00016496  00000-0  10519-2 0  9993,2 53162  53.2175  40.0312 0001250  95.2866 264.8269 15.08846377 36674,6917.861,95.437,540.591,538.861,0.0
53162.0,STARLINK-4114,PAYLOAD,2023-03-11 03:52:28,15.08837677,0.0001532,53.218,37.6538,97.7787,262.3379,0.0017961,0.00028411,0.0,0 STARLINK-4114,1 53162U 22083AG  23070.16144578  .00028411  00000-0  17961-2 0  9992,2 53162  53.2180  37.6538 0001532  97.7787 262.3379 15.08837677 36751,6917.887,95.438,540.812,538.693,0.0
53162.0,STARLINK-4114,PAYLOAD,2023-03-11 10:14:01,15.0885511,0.0001153,53.2172,36.4631,106.3186,253.7933,0.002538,0.00040352,0.0,0 STARLINK-4114,1 53162U 22083AG  23070.42640465  .00040352  00000-0  25380-2 0  9999,2 53162  53.2172  36.4631 0001153 106.3186 253.7933 15.08855110 36169,6917.834,95.437,540.497,538.902,0.0
53162.0,STARLINK-4114,PAYLOAD,2023-03-11 21:21:43,15.08854974,0.0002838,53.2182,34.3822,108.0712,252.0589,0.0014324,0.00022592,0.0,0 STARLINK-4114,1 53162U 22083AG  23070.89009141  .00022592  00000-0  14324-2 0  9992,2 53162  53.2182  34.3822 0002838 108.0712 252.0589 15.08854974 36238,6917.835,95.437,541.663,537.736,0.0
53162.0,STARLINK-4114,PAYLOAD,2023-03-12 06:54:02,15.08846548,0.0002514,53.2188,32.5978,107.0601,253.0666,0.00087156,0.00013613,0.0,0 STARLINK-4114,1 53162U 22083AG  23071.28753243  .00013613  00000-0  87156-3 0  9993,2 53162  53.2188  32.5978 0002514 107.0601 253.0666 15.08846548 36924,6917.86,95.437,541.465,537.986,0.0
53162.0,STARLINK-4114,PAYLOAD,2023-03-13 06:44:48,15.08858192,0.0001324,53.2188,28.1337,117.9997,242.1129,0.00037983,5.765e-05,0.0,0 STARLINK-4114,1 53162U 22083AG  23072.28112007  .00005765  00000-0  37983-3 0  9993,2 53162  53.2188  28.1337 0001324 117.9997 242.1129 15.08858192 37078,6917.825,95.436,540.606,538.774,0.0
53162.0,STARLINK-4114,PAYLOAD,2023-03-14 06:35:34,15.08869959,0.0001516,53.2183,23.6727,120.591,239.5232,0.00046703,7.159e-05,0.0,0 STARLINK-4114,1 53162U 22083AG  23073.27471049  .00007159  00000-0  46703-3 0  9996,2 53162  53.2183  23.6727 0001516 120.5910 239.5232 15.08869959 36598,6917.789,95.436,540.703,538.605,0.0
53162.0,STARLINK-4114,PAYLOAD,2023-03-15 03:15:36,15.0884445,0.0001076,53.2163,19.8127,70.7045,289.4064,-7.4564e-05,-1.474e-05,0.0,0 STARLINK-4114,1 53162U 22083AG  23074.13583767 -.00001474  00000-0 -74564-4 0  9996,2 53162  53.2163  19.8127 0001076  70.7045 289.4064 15.08844450 37354,6917.867,95.437,540.476,538.987,0.0
53162.0,STARLINK-4114,PAYLOAD,2023-03-15 06:26:22,15.08850376,0.0001183,53.2165,19.2143,66.7759,293.3358,0.00012478,1.699e-05,0.0,0 STARLINK-4114,1 53162U 22083AG  23074.26831630  .00001699  00000-0  12478-3 0  9997,2 53162  53.2165  19.2143 0001183  66.7759 293.3358 15.08850376 36740,6917.849,95.437,540.532,538.895,0.0
53162.0,STARLINK-4114,PAYLOAD,2023-03-15 20:44:51,15.08829487,0.000116,53.2171,16.5374,89.1929,270.9196,-0.00017572,-3.082e-05,0.0,0 STARLINK-4114,1 53162U 22083AG  23074.86448307 -.00003082  00000-0 -17572-3 0  9998,2 53162  53.2171  16.5374 0001160  89.1929 270.9196 15.08829487 37466,6917.913,95.438,540.58,538.975,0.0
53162.0,STARLINK-4114,PAYLOAD,2023-03-15 22:20:14,15.08832473,0.0001399,53.2164,16.2407,123.8233,236.2892,-8.871e-05,-1.699e-05,0.0,0 STARLINK-4114,1 53162U 22083AG  23074.93072463 -.00001699  00000-0 -88710-4 0  9997,2 53162  53.2164  16.2407 0001399 123.8233 236.2892 15.08832473 36848,6917.903,95.438,540.736,538.801,0.0
53162.0,STARLINK-4114,PAYLOAD,2023-03-16 03:06:23,15.08850935,0.0001314,53.2177,15.3541,101.8338,258.2802,0.0008411,0.00013127,0.0,0 STARLINK-4114,1 53162U 22083AG  23075.12944361  .00013127  00000-0  84110-3 0  9990,2 53162  53.2177  15.3541 0001314 101.8338 258.2802 15.08850935 37502,6917.847,95.437,540.621,538.803,0.0
53162.0,STARLINK-4114,PAYLOAD,2023-03-16 07:52:33,15.08885478,0.0001063,53.2169,14.459,99.5424,260.5688,0.0030621,0.00048844,0.0,0 STARLINK-4114,1 53162U 22083AG  23075.32816035  .00048844  00000-0  30621-2 0  9999,2 53162  53.2169  14.4590 0001063  99.5424 260.5688 15.08885478 37538,6917.741,95.435,540.342,538.871,0.0
53162.0,STARLINK-4114,PAYLOAD,2023-03-17 04:32:34,15.08842672,9.91e-05,53.2168,10.5926,94.0091,266.1015,0.0014282,0.00022516,0.0,0 STARLINK-4114,1 53162U 22083AG  23076.18928949  .00022516  00000-0  14282-2 0  9995,2 53162  53.2168  10.5926 0000991  94.0091 266.1015 15.08842672 37665,6917.872,95.437,540.423,539.052,0.0
53162.0,STARLINK-4114,PAYLOAD,2023-03-17 12:29:30,15.08832936,0.0001495,53.2168,9.1059,86.4768,273.6395,0.0013749,0.00021657,0.0,0 STARLINK-4114,1 53162U 22083AG  23076.52049537  .00021657  00000-0  13749-2 0  9992,2 53162  53.2168   9.1059 0001495  86.4768 273.6395 15.08832936 37714,6917.902,95.438,540.801,538.733,0.0
53162.0,STARLINK-4114,PAYLOAD,2023-03-18 12:20:17,15.08848495,9.75e-05,53.217,4.6466,68.9362,291.1734,0.00072785,0.00011317,0.0,0 STARLINK-4114,1 53162U 22083AG  23077.51409412  .00011317  00000-0  72785-3 0  9992,2 53162  53.2170   4.6466 0000975  68.9362 291.1734 15.08848495 37861,6917.854,95.437,540.394,539.045,0.0
53162.0,STARLINK-4114,PAYLOAD,2023-03-19 04:14:09,15.08853014,0.0001343,53.2164,1.6705,89.8802,270.2344,0.00061736,9.554e-05,0.0,0 STARLINK-4114,1 53162U 22083AG  23078.17649355  .00009554  00000-0  61736-3 0  9991,2 53162  53.2164   1.6705 0001343  89.8802 270.2344 15.08853014 37967,6917.841,95.437,540.635,538.777,0.0
53162.0,STARLINK-4114,PAYLOAD,2023-03-19 12:11:04,15.08844978,0.0001211,53.2164,0.185,82.4068,277.7062,0.00046198,7.073e-05,0.0,0 STARLINK-4114,1 53162U 22083AG  23078.50769537  .00007073  00000-0  46198-3 0  9992,2 53162  53.2164   0.1850 0001211  82.4068 277.7062 15.08844978 38014,6917.865,95.437,540.568,538.892,0.0
53162.0,STARLINK-4114,PAYLOAD,2023-03-20 04:04:56,15.08844922,0.0001306,53.2158,357.2107,93.115,266.9992,0.0003928,5.97e-05,0.0,0 STARLINK-4114,1 53162U 22083AG  23079.17009688  .00005970  00000-0  39280-3 0  9998,2 53162  53.2158 357.2107 0001306  93.1150 266.9992 15.08844922 38116,6917.865,95.437,540.634,538.827,0.0
53162.0,STARLINK-4114,PAYLOAD,2023-03-21 03:55:43,15.08860186,0.0001244,53.2171,352.7511,78.2781,281.8351,0.00077709,0.00012108,0.0,0 STARLINK-4114,1 53162U 22083AG  23080.16369406  .00012108  00000-0  77709-3 0  9995,2 53162  53.2171 352.7511 0001244  78.2781 281.8351 15.08860186 37636,6917.819,95.436,540.544,538.823,0.0
53162.0,STARLINK-4114,PAYLOAD,2023-03-22 02:11:06,15.08851073,0.0001152,53.2163,348.5895,84.4844,275.6279,0.00046002,7.043e-05,0.0,0 STARLINK-4114,1 53162U 22083AG  23081.09105249  .00007043  00000-0  46002-3 0  9995,2 53162  53.2163 348.5895 0001152  84.4844 275.6279 15.08851073 38403,6917.847,95.437,540.508,538.915,0.0
53162.0,STARLINK-4114,PAYLOAD,2023-03-22 21:15:44,15.08843692,0.0001034,53.2158,345.017,99.8861,260.2248,0.00020488,2.975e-05,0.0,0 STARLINK-4114,1 53162U 22083AG  23081.88593365  .00002975  00000-0  20488-3 0  9991,2 53162  53.2158 345.0170 0001034  99.8861 260.2248 15.08843692 37899,6917.869,95.437,540.449,539.019,0.0
53162.0,STARLINK-4114,PAYLOAD,2023-03-23 00:26:30,15.08848727,0.000107,53.2167,344.4244,98.6876,261.4238,0.00042871,6.543e-05,0.0,0 STARLINK-4114,1 53162U 22083AG  23082.01841240  .00006543  00000-0  42871-3 0  9990,2 53162  53.2167 344.4244 0001070  98.6876 261.4238 15.08848727 38546,6917.854,95.437,540.459,538.979,0.0
53162.0,STARLINK-4114,PAYLOAD,2023-03-23 21:06:32,15.08839909,8.01e-05,53.2162,340.5594,81.1233,278.985,0.0009117,0.00014252,0.0,0 STARLINK-4114,1 53162U 22083AG  23082.87953829  .00014252  00000-0  91170-3 0  9993,2 53162  53.2162 340.5594 0000801  81.1233 278.9850 15.08839909 38670,6917.881,95.438,540.3,539.192,0.0
53162.0,STARLINK-4114,PAYLOAD,2023-03-23 22:41:55,15.08844915,7.83e-05,53.2158,340.2622,88.0551,272.0531,0.0011333,0.00017797,0.0,0 STARLINK-4114,1 53162U 22083AG  23082.94577790  .00017797  00000-0  11333-2 0  9999,2 53162  53.2158 340.2622 0000783  88.0551 272.0531 15.08844915 38058,6917.865,95.437,540.272,539.189,0.0
53162.0,STARLINK-4114,PAYLOAD,2023-03-24 03:28:04,15.08899199,8.66e-05,53.2159,339.3699,88.2928,271.8163,0.0037997,0.00060805,0.0,0 STARLINK-4114,1 53162U 22083AG  23083.14449521  .00060805  00000-0  37997-2 0  9994,2 53162  53.2159 339.3699 0000866  88.2928 271.8163 15.08899199 38719,6917.699,95.434,540.164,538.965,0.0
53162.0,STARLINK-4114,PAYLOAD,2023-03-24 20:57:17,15.08887369,7.73e-05,53.215,336.0997,80.7504,279.3575,0.00098898,0.00015507,0.0,0 STARLINK-4114,1 53162U 22083AG  23083.87311736  .00015507  00000-0  98898-3 0  9997,2 53162  53.2150 336.0997 0000773  80.7504 279.3575 15.08887369 38827,6917.736,95.435,540.135,539.066,0.0
53162.0,STARLINK-4114,PAYLOAD,2023-03-24 22:32:40,15.08886259,0.0001161,53.2151,335.8044,74.6221,285.4899,0.0017279,0.00027353,0.0,0 STARLINK-4114,1 53162U 22083AG  23083.93935788  .00027353  00000-0  17279-2 0  9998,2 53162  53.2151 335.8044 0001161  74.6221 285.4899 15.08886259 38204,6917.739,95.435,540.407,538.801,0.0
